{
  "norad_id": 68673,
  "name": "STARLINK-37316",
  "history": [
    {
      "epoch": "2026-04-22T11:29:29.437152Z",
      "apogee_km": 344.9754779181885,
      "perigee_km": 343.0825159734477,
      "latitude_deg": 6.147239859014007e-05,
      "longitude_deg": -39.3791763438321,
      "height_km": 347.69474782676787,
      "semi_major_axis_km": 6722.165996945818,
      "eccentricity": 0.0001408,
      "inclination_deg": 97.2837,
      "raan_deg": 343.5333,
      "arg_perigee_deg": 121.8289,
      "mean_anomaly_deg": 238.3114,
      "mean_motion_rev_day": 15.75211642
    }
  ]
}